[{"CCSDS_OMM_VERS":"2.0","COMMENT":"GENERATED VIA SPACE-TRACK.ORG API","CREATION_DATE":"2019-12-15T14:30:16","ORIGINATOR":"18 SPCS","OBJECT_NAME":"STARLINK-1024","OBJECT_ID":"2019-074S","CENTER_NAME":"EARTH","REF_FRAME":"TEME","TIME_SYSTEM":"UTC","MEAN_ELEMENT_THEORY":"SGP4","EPOCH":"2019-12-15T14:00:01.000224","MEAN_MOTION":"15.73218768","ECCENTRICITY":"0.00088350","INCLINATION":"53.0091","RA_OF_ASC_NODE":"1.6603","ARG_OF_PERICENTER":"337.2377","MEAN_ANOMALY":"46.7032","EPHEMERIS_TYPE":"0","CLASSIFICATION_TYPE":"U","NORAD_CAT_ID":"44729","ELEMENT_SET_NO":"999","REV_AT_EPOCH":"536","BSTAR":"0.00024377000000","MEAN_MOTION_DOT":"0.00033830","MEAN_MOTION_DDOT":"0.0000000000000","SEMIMAJOR_AXIS":"6727.841","PERIOD":"91.532","APOAPSIS":"355.650","PERIAPSIS":"343.762","OBJECT_TYPE":"PAYLOAD","RCS_SIZE":"LARGE","COUNTRY_CODE":"US","LAUNCH_DATE":"2019-11-11","SITE":"AFETR","DECAY_DATE":null,"FILE":"2667090","GP_ID":"144818936","TLE_LINE0":"0 STARLINK-1024","TLE_LINE1":"1 44729U 19074S   19349.58334491  .00033830  00000-0  24377-3 0  9993","TLE_LINE2":"2 44729  53.0091   1.6603 0008835 337.2377  46.7032 15.73218768  5362"},{"CCSDS_OMM_VERS":"2.0","COMMENT":"GENERATED VIA SPACE-TRACK.ORG API","CREATION_DATE":"2019-12-15T22:40:17","ORIGINATOR":"18 SPCS","OBJECT_NAME":"STARLINK-1024","OBJECT_ID":"2019-074S","CENTER_NAME":"EARTH","REF_FRAME":"TEME","TIME_SYSTEM":"UTC","MEAN_ELEMENT_THEORY":"SGP4","EPOCH":"2019-12-15T22:00:00.999936","MEAN_MOTION":"15.73141761","ECCENTRICITY":"0.00085420","INCLINATION":"53.0093","RA_OF_ASC_NODE":"0.0009","ARG_OF_PERICENTER":"338.0664","MEAN_ANOMALY":"134.8795","EPHEMERIS_TYPE":"0","CLASSIFICATION_TYPE":"U","NORAD_CAT_ID":"44729","ELEMENT_SET_NO":"999","REV_AT_EPOCH":"541","BSTAR":"0.00280590000000","MEAN_MOTION_DOT":"0.00412707","MEAN_MOTION_DDOT":"0.0000000000000","SEMIMAJOR_AXIS":"6728.061","PERIOD":"91.536","APOAPSIS":"355.673","PERIAPSIS":"344.179","OBJECT_TYPE":"PAYLOAD","RCS_SIZE":"LARGE","COUNTRY_CODE":"US","LAUNCH_DATE":"2019-11-11","SITE":"AFETR","DECAY_DATE":null,"FILE":"2667209","GP_ID":"144860906","TLE_LINE0":"0 STARLINK-1024","TLE_LINE1":"1 44729U 19074S   19349.91667824  .00412707  00000-0  28059-2 0  9993","TLE_LINE2":"2 44729  53.0093   0.0009 0008542 338.0664 134.8795 15.73141761  5419"},{"CCSDS_OMM_VERS":"2.0","COMMENT":"GENERATED VIA SPACE-TRACK.ORG API","CREATION_DATE":"2019-12-16T06:30:17","ORIGINATOR":"18 SPCS","OBJECT_NAME":"STARLINK-1024","OBJECT_ID":"2019-074S","CENTER_NAME":"EARTH","REF_FRAME":"TEME","TIME_SYSTEM":"UTC","MEAN_ELEMENT_THEORY":"SGP4","EPOCH":"2019-12-16T04:00:00.999936","MEAN_MOTION":"15.73175026","ECCENTRICITY":"0.00085310","INCLINATION":"53.0093","RA_OF_ASC_NODE":"358.7587","ARG_OF_PERICENTER":"339.1832","MEAN_ANOMALY":"110.4971","EPHEMERIS_TYPE":"0","CLASSIFICATION_TYPE":"U","NORAD_CAT_ID":"44729","ELEMENT_SET_NO":"999","REV_AT_EPOCH":"545","BSTAR":"0.00233110000000","MEAN_MOTION_DOT":"0.00340319","MEAN_MOTION_DDOT":"0.0000000000000","SEMIMAJOR_AXIS":"6727.966","PERIOD":"91.534","APOAPSIS":"355.571","PERIAPSIS":"344.091","OBJECT_TYPE":"PAYLOAD","RCS_SIZE":"LARGE","COUNTRY_CODE":"US","LAUNCH_DATE":"2019-11-11","SITE":"AFETR","DECAY_DATE":null,"FILE":"2667335","GP_ID":"144902247","TLE_LINE0":"0 STARLINK-1024","TLE_LINE1":"1 44729U 19074S   19350.16667824  .00340319  00000-0  23311-2 0  9997","TLE_LINE2":"2 44729  53.0093 358.7587 0008531 339.1832 110.4971 15.73175026  5451"},{"CCSDS_OMM_VERS":"2.0","COMMENT":"GENERATED VIA SPACE-TRACK.ORG API","CREATION_DATE":"2019-12-16T22:40:17","ORIGINATOR":"18 SPCS","OBJECT_NAME":"STARLINK-1024","OBJECT_ID":"2019-074S","CENTER_NAME":"EARTH","REF_FRAME":"TEME","TIME_SYSTEM":"UTC","MEAN_ELEMENT_THEORY":"SGP4","EPOCH":"2019-12-16T18:00:00.999648","MEAN_MOTION":"15.73200247","ECCENTRICITY":"0.00086290","INCLINATION":"53.0091","RA_OF_ASC_NODE":"355.8577","ARG_OF_PERICENTER":"340.4552","MEAN_ANOMALY":"174.9173","EPHEMERIS_TYPE":"0","CLASSIFICATION_TYPE":"U","NORAD_CAT_ID":"44729","ELEMENT_SET_NO":"999","REV_AT_EPOCH":"554","BSTAR":"0.00082737000000","MEAN_MOTION_DOT":"0.00117381","MEAN_MOTION_DDOT":"0.0000000000000","SEMIMAJOR_AXIS":"6727.894","PERIOD":"91.533","APOAPSIS":"355.564","PERIAPSIS":"343.953","OBJECT_TYPE":"PAYLOAD","RCS_SIZE":"LARGE","COUNTRY_CODE":"US","LAUNCH_DATE":"2019-11-11","SITE":"AFETR","DECAY_DATE":null,"FILE":"2667700","GP_ID":"144928153","TLE_LINE0":"0 STARLINK-1024","TLE_LINE1":"1 44729U 19074S   19350.75001157  .00117381  00000-0  82737-3 0  9992","TLE_LINE2":"2 44729  53.0091 355.8577 0008629 340.4552 174.9173 15.73200247  5541"},{"CCSDS_OMM_VERS":"2.0","COMMENT":"GENERATED VIA SPACE-TRACK.ORG API","CREATION_DATE":"2019-12-17T22:30:17","ORIGINATOR":"18 SPCS","OBJECT_NAME":"STARLINK-1024","OBJECT_ID":"2019-074S","CENTER_NAME":"EARTH","REF_FRAME":"TEME","TIME_SYSTEM":"UTC","MEAN_ELEMENT_THEORY":"SGP4","EPOCH":"2019-12-17T22:00:00.999936","MEAN_MOTION":"15.73094376","ECCENTRICITY":"0.00085020","INCLINATION":"53.0093","RA_OF_ASC_NODE":"350.0558","ARG_OF_PERICENTER":"344.7822","MEAN_ANOMALY":"302.0261","EPHEMERIS_TYPE":"0","CLASSIFICATION_TYPE":"U","NORAD_CAT_ID":"44729","ELEMENT_SET_NO":"999","REV_AT_EPOCH":"573","BSTAR":"0.00386540000000","MEAN_MOTION_DOT":"0.00578950","MEAN_MOTION_DDOT":"0.0000000000000","SEMIMAJOR_AXIS":"6728.196","PERIOD":"91.539","APOAPSIS":"355.781","PERIAPSIS":"344.341","OBJECT_TYPE":"PAYLOAD","RCS_SIZE":"LARGE","COUNTRY_CODE":"US","LAUNCH_DATE":"2019-11-11","SITE":"AFETR","DECAY_DATE":null,"FILE":"2668327","GP_ID":"144999840","TLE_LINE0":"0 STARLINK-1024","TLE_LINE1":"1 44729U 19074S   19351.91667824  .00578950  00000-0  38654-2 0  9991","TLE_LINE2":"2 44729  53.0093 350.0558 0008502 344.7822 302.0261 15.73094376  5733"},{"CCSDS_OMM_VERS":"2.0","COMMENT":"GENERATED VIA SPACE-TRACK.ORG API","CREATION_DATE":"2019-12-18T06:30:17","ORIGINATOR":"18 SPCS","OBJECT_NAME":"STARLINK-1024","OBJECT_ID":"2019-074S","CENTER_NAME":"EARTH","REF_FRAME":"TEME","TIME_SYSTEM":"UTC","MEAN_ELEMENT_THEORY":"SGP4","EPOCH":"2019-12-18T06:00:02.000160","MEAN_MOTION":"15.73227420","ECCENTRICITY":"0.00088110","INCLINATION":"53.0092","RA_OF_ASC_NODE":"348.4001","ARG_OF_PERICENTER":"345.7069","MEAN_ANOMALY":"30.1195","EPHEMERIS_TYPE":"0","CLASSIFICATION_TYPE":"U","NORAD_CAT_ID":"44729","ELEMENT_SET_NO":"999","REV_AT_EPOCH":"578","BSTAR":"-0.00004424300000","MEAN_MOTION_DOT":"-0.00006862","MEAN_MOTION_DDOT":"0.0000000000000","SEMIMAJOR_AXIS":"6727.816","PERIOD":"91.531","APOAPSIS":"355.609","PERIAPSIS":"343.754","OBJECT_TYPE":"PAYLOAD","RCS_SIZE":"LARGE","COUNTRY_CODE":"US","LAUNCH_DATE":"2019-11-11","SITE":"AFETR","DECAY_DATE":null,"FILE":"2668505","GP_ID":"145023077","TLE_LINE0":"0 STARLINK-1024","TLE_LINE1":"1 44729U 19074S   19352.25002315 -.00006862  00000-0 -44243-4 0  9990","TLE_LINE2":"2 44729  53.0092 348.4001 0008811 345.7069  30.1195 15.73227420  5781"},{"CCSDS_OMM_VERS":"2.0","COMMENT":"GENERATED VIA SPACE-TRACK.ORG API","CREATION_DATE":"2019-12-19T04:45:16","ORIGINATOR":"18 SPCS","OBJECT_NAME":"STARLINK-1024","OBJECT_ID":"2019-074S","CENTER_NAME":"EARTH","REF_FRAME":"TEME","TIME_SYSTEM":"UTC","MEAN_ELEMENT_THEORY":"SGP4","EPOCH":"2019-12-18T22:00:00.999936","MEAN_MOTION":"15.73181630","ECCENTRICITY":"0.00085890","INCLINATION":"53.0088","RA_OF_ASC_NODE":"345.0833","ARG_OF_PERICENTER":"347.4541","MEAN_ANOMALY":"206.2622","EPHEMERIS_TYPE":"0","CLASSIFICATION_TYPE":"U","NORAD_CAT_ID":"44729","ELEMENT_SET_NO":"999","REV_AT_EPOCH":"181","BSTAR":"0.00138320000000","MEAN_MOTION_DOT":"0.00198384","MEAN_MOTION_DDOT":"0.0000000000000","SEMIMAJOR_AXIS":"6727.947","PERIOD":"91.534","APOAPSIS":"355.591","PERIAPSIS":"344.033","OBJECT_TYPE":"PAYLOAD","RCS_SIZE":"LARGE","COUNTRY_CODE":"US","LAUNCH_DATE":"2019-11-11","SITE":"AFETR","DECAY_DATE":null,"FILE":"2669174","GP_ID":"145095372","TLE_LINE0":"0 STARLINK-1024","TLE_LINE1":"1 44729U 19074S   19352.91667824 +.00198384 +00000-0 +13832-2 0  9992","TLE_LINE2":"2 44729 053.0088 345.0833 0008589 347.4541 206.2622 15.73181630001811"},{"CCSDS_OMM_VERS":"2.0","COMMENT":"GENERATED VIA SPACE-TRACK.ORG API","CREATION_DATE":"2019-12-19T12:30:17","ORIGINATOR":"18 SPCS","OBJECT_NAME":"STARLINK-1024","OBJECT_ID":"2019-074S","CENTER_NAME":"EARTH","REF_FRAME":"TEME","TIME_SYSTEM":"UTC","MEAN_ELEMENT_THEORY":"SGP4","EPOCH":"2019-12-19T12:00:00.999648","MEAN_MOTION":"15.73212537","ECCENTRICITY":"0.00089040","INCLINATION":"53.0090","RA_OF_ASC_NODE":"342.1849","ARG_OF_PERICENTER":"348.7234","MEAN_ANOMALY":"270.6950","EPHEMERIS_TYPE":"0","CLASSIFICATION_TYPE":"U","NORAD_CAT_ID":"44729","ELEMENT_SET_NO":"999","REV_AT_EPOCH":"598","BSTAR":"0.00013264000000","MEAN_MOTION_DOT":"0.00018080","MEAN_MOTION_DDOT":"0.0000000000000","SEMIMAJOR_AXIS":"6727.859","PERIOD":"91.532","APOAPSIS":"355.714","PERIAPSIS":"343.733","OBJECT_TYPE":"PAYLOAD","RCS_SIZE":"LARGE","COUNTRY_CODE":"US","LAUNCH_DATE":"2019-11-11","SITE":"AFETR","DECAY_DATE":null,"FILE":"2669454","GP_ID":"145102291","TLE_LINE0":"0 STARLINK-1024","TLE_LINE1":"1 44729U 19074S   19353.50001157  .00018080  00000-0  13264-3 0  9993","TLE_LINE2":"2 44729  53.0090 342.1849 0008904 348.7234 270.6950 15.73212537  5985"}]